window._tle = "PEGASUS\n1 42784U 17036V   21201.38708630  .00001682  00000-0  70950-4 0  9995\n2 42784  97.2480 249.4070 0013014  67.4147 292.8466 15.24570670226375";
